[
    {
        "Altitude(m)": 611965.2338446785,
        "Argument of Periapsis(deg)": 0.0,
        "Eccentricity": 0.0,
        "Inclination(deg)": 60.0,
        "Latitude(deg)": 59.140308546253024,
        "Longitude(deg)": 118.96987061968328,
        "Mean Anomaly(deg)": 81.8182,
        "RAAN(deg)": 145.0,
        "Satellite Name": "Test1 643",
        "Satellite Number": 643,
        "Semi-Major Axis(m)": 6980739.136638005,
        "Time(s)": 0
    },
    {
        "Altitude(m)": 611995.8590040101,
        "Argument of Periapsis(deg)": 0.00010418945913296404,
        "Eccentricity": 0.0,
        "Inclination(deg)": 60.0,
        "Latitude(deg)": 59.28340787412671,
        "Longitude(deg)": 120.1032379659009,
        "Mean Anomaly(deg)": 82.43830614546184,
        "RAAN(deg)": 144.99957995086027,
        "Satellite Name": "Test1 643",
        "Satellite Number": 643,
        "Semi-Major Axis(m)": 6980739.136638005,
        "Time(s)": 10
    }
]